{
    "links": {
        "self": "http://www.neowsapp.com/rest/v1/neo/3827430?api_key=iIulBulltgU6a56xZRHN4H3l9WmuAYTsLGpBGhQ2"
    },
    "id": "3827430",
    "neo_reference_id": "3827430",
    "name": "(2018 RA4)",
    "designation": "2018 RA4",
    "nasa_jpl_url": "http://ssd.jpl.nasa.gov/sbdb.cgi?sstr=3827430",
    "absolute_magnitude_h": 24.3,
    "estimated_diameter": {
        "kilometers": {
            "estimated_diameter_min": 0.0366906138,
            "estimated_diameter_max": 0.0820427065
        },
        "meters": {
            "estimated_diameter_min": 36.6906137531,
            "estimated_diameter_max": 82.0427064882
        },
        "miles": {
            "estimated_diameter_min": 0.0227984834,
            "estimated_diameter_max": 0.0509789586
        },
        "feet": {
            "estimated_diameter_min": 120.3760332259,
            "estimated_diameter_max": 269.1689931548
        }
    },
    "is_potentially_hazardous_asteroid": false,
    "close_approach_data": [
        {
            "close_approach_date": "2018-09-03",
            "close_approach_date_full": "2018-Sep-03 23:18",
            "epoch_date_close_approach": 1536016680000,
            "relative_velocity": {
                "kilometers_per_second": "9.3172316708",
                "kilometers_per_hour": "33542.0340149746",
                "miles_per_hour": "20841.7155244713"
            },
            "miss_distance": {
                "astronomical": "0.0514657575",
                "lunar": "20.0201796675",
                "kilometers": "7699167.699936525",
                "miles": "4784040.969813045"
            },
            "orbiting_body": "Earth"
        }
    ],
    "orbital_data": {
        "orbit_id": "7",
        "orbit_determination_date": "2018-09-28 06:30:19",
        "first_observation_date": "2018-09-10",
        "last_observation_date": "2018-09-28",
        "data_arc_in_days": 18,
        "observations_used": 64,
        "orbit_uncertainty": "7",
        "minimum_orbit_intersection": ".0322009",
        "jupiter_tisserand_invariant": "3.510",
        "epoch_osculation": "2459000.5",
        "eccentricity": ".5242874231308016",
        "semi_major_axis": "2.146198480971506",
        "inclination": "6.895333528683328",
        "ascending_node_longitude": "343.3973226849633",
        "orbital_period": "1148.42662239786",
        "perihelion_distance": "1.020973609855715",
        "perihelion_argument": "334.4326927377392",
        "aphelion_distance": "3.271423352087298",
        "perihelion_time": "2459495.621764224896",
        "mean_anomaly": "204.7930136373903",
        "mean_motion": ".313472356856668",
        "equinox": "J2000",
        "orbit_class": {
            "orbit_class_type": "AMO",
            "orbit_class_description": "Near-Earth asteroid orbits similar to that of 1221 Amor",
            "orbit_class_range": "1.017 AU < q (perihelion) < 1.3 AU"
        }
    },
    "is_sentry_object": false
}